#cP2022  5 25  0  0  0.00000000      96 ORBIT IGb14 HLM  IGS
## 2211 259200.00000000   900.00000000 59724 0.0000000000000
+   32   G01G02G03G04G05G06G07G08G09G10G11G12G13G14G15G16G17
+        G18G19G20G21G22G23G24G25G26G27G28G29G30G31G32  0  0
+          0  0  0  0  0  0  0  0  0  0  0  0  0  0  0  0  0
+          0  0  0  0  0  0  0  0  0  0  0  0  0  0  0  0  0
+          0  0  0  0  0  0  0  0  0  0  0  0  0  0  0  0  0
++         2  2  1  2  1  2  1  2  2  2  3  2  1  2  2  2  2
++         2  2  2  2  2  2  2  2  2  2  2  2  1  2  2  0  0
++         0  0  0  0  0  0  0  0  0  0  0  0  0  0  0  0  0
++         0  0  0  0  0  0  0  0  0  0  0  0  0  0  0  0  0
++         0  0  0  0  0  0  0  0  0  0  0  0  0  0  0  0  0
%c G  cc GPS ccc cccc cccc cccc cccc ccccc ccccc ccccc ccccc
%c cc cc ccc ccc cccc cccc cccc cccc ccccc ccccc ccccc ccccc
%f  1.2500000  1.025000000  0.00000000000  0.000000000000000
%f  0.0000000  0.000000000  0.00000000000  0.000000000000000
%i    0    0    0    0      0      0      0      0         0
%i    0    0    0    0      0      0      0      0         0
/* FINAL ORBIT COMBINATION FROM WEIGHTED AVERAGE OF:        
/* cod emr esa gfz grg jpl mit ngs sio                      
/* REFERENCED TO IGS TIME (IGST) AND TO WEIGHTED MEAN POLE: 
/* PCV:IGS14_2196 OL/AL:FES2004  NONE     Y  ORB:CMB CLK:CMB
*  2022  5 25 18  0  0.00000000
PG01  18891.468321   9115.726697  16204.236482    355.245186  2  2  2  79       
PG02 -14455.043199 -21975.715178   3663.107825   -653.115455  5  5  6  72       
PG03  16387.605948  -1655.412244  20699.040934   -256.853993  6  3  4  90       
PG04  26318.638126   1428.708884   3647.373353   -163.777046  8  3  3  74       
PG05  -9671.271102 -13924.309801 -20575.595302    -83.122876  4  4  3  80       
PG06  -2326.445231 -21538.263041  15373.433360    317.333482  3  6  5 106       
PG07  13320.572284  -7483.739578 -21335.033813    322.228848  5  4  6  94       
PG08  23004.090831   6209.803063 -12139.960293    -69.433522  4  5  3  86       
PG09  24773.799039  -7079.617535  -6575.307832   -333.902953  5  4  5  86       
PG10 -11310.448323  23853.318154     43.101946   -428.455275  5  3  7  79       
PG11 -12364.843546 -23407.349739   2262.768701    -20.830067  4  7  7 102       
PG12 -14772.205023  -3814.321980  21460.877248   -220.963833  3  5  6  93       
PG13 -15296.543602 -13024.225597 -17613.177029    318.041345  5  6  5 107       
PG14  13083.580466 -23025.452984  -1193.840564   -109.707100  7  6  6  88       
PG15 -23867.870038  -3964.086102 -11720.663841    -58.412538  4  4  3  82       
PG16   4339.428485  18176.123417 -18963.623501   -503.849830  7  7  5  97       
PG17  12403.667715 -13445.006452  19705.682718    617.071455  3  3  4 103       
PG18 -13280.344876   7031.115762 -21914.832610    160.484955  4  6  6 100       
PG19   3863.791648 -14489.849989  21643.450338    162.049062     5  5 110       
PG20  -3479.671705 -22705.242970 -13525.276722    514.108193  4  7  3  88       
PG21  20360.900074  15779.330411   8431.104601    161.230926     5  4  62       
PG22   -502.080901  15400.075786  22049.703788    264.990065  4  5  5  90       
PG23 -16060.486503  18267.966745 -10553.386948    -24.130686  4  9  6 116       
PG24 -20748.574053 -11392.499257  12149.594089    234.416182  4  5  4  98       
PG25 -17636.147259  11755.031362  15549.134470    329.240961  6  4  5 106       
PG26  -2161.424411  24405.045106  -9946.764033    208.066765  6  8  4  88       
PG27  12291.198427  12794.497196 -20101.147774    208.150471  4  6  1  99       
PG28   7843.309413 -24265.921675   8344.560037    351.323843  5  8  5 104       
PG29 -25335.302307   4557.628830  -6740.314964   -517.345942  2  5  4 101       
PG30   6214.461008 -16697.711537 -19539.323492   -529.183504  4  4  7 106       
PG31   3765.765319  22575.527807  12942.041939   -179.084385  4  4  5  67       
PG32  -9165.864678  14933.502994  20051.600573   -135.395220  4  6  6  90       
*  2022  5 25 18 15  0.00000000
PG01  19821.975676  10620.801460  14108.461221    355.237847  1  2  3  71       
PG02 -13942.915235 -21746.729657   6460.848128   -653.115341  5  5  6  86       
PG03  15466.947278    598.403389  21457.422755   -256.865711  6  2  4  67       
PG04  25764.915021   1712.911964   6420.949809   -163.773704  8  3  4  61       
PG05  -8751.542666 -15991.461783 -19430.735689    -83.124323  5  5  3  50       
PG06  -1134.331676 -20106.610642  17336.489544    317.346961  3  6  6 109       
PG07  14784.142674  -5444.307065 -21037.073628    322.228639  5  5  6  89       
PG08  21540.175925   6578.371165 -14395.425893    -69.434966  5  6  3  85       
PG09  25390.349360  -6893.526958  -3817.989141   -333.900234  6  4  5  95       
PG10 -11460.373588  23594.010753  -2849.930278   -428.468917  4  3  7  80       
PG11 -11930.657315 -23188.721237   5081.320717    -20.826512  3  8  7 110       
PG12 -13617.675517  -6061.793498  21713.035693   -220.969156  2  5  6  92       
PG13 -13225.075652 -13087.069973 -19172.417381    318.047533  5  6  4  95       
PG14  13207.857234 -22632.628569  -4018.347503   -109.708300  7  6  7  86       
PG15 -22559.352712  -4532.643206 -13944.577200    -58.409598  4  4  3  87       
PG16   3226.874723  19893.117970 -17330.301888   -503.852293  7  8  5  90       
PG17  14487.807760 -13450.056998  18192.860451    617.075267  3  1  3  89       
PG18 -14691.409892   4988.696923 -21581.380065    160.475644  4  5  6  99       
PG19   6361.610938 -14444.766146  21064.254529    162.053691     5  5 105       
PG20  -2894.758584 -24012.416769 -11230.483452    514.107144  4  7  4  89       
PG21  20694.879291  16445.301461   5766.518044    161.229941     6  4  85       
PG22  -2923.368183  15439.665587  21812.658302    264.995749  3  5  5  72       
PG23 -15741.214742  16943.625782 -12977.574827    -24.132874  5  8  6 113       
PG24 -21391.027886 -12537.262443   9767.798437    234.409606  3  5  5 100       
PG25 -17044.498871   9892.548364  17388.515223    329.245211  6  3  5  86       
PG26  -2802.616580  25223.625649  -7362.712173    208.069298  6  8  4  93       
PG27  10009.380966  13107.774300 -21115.128026    208.155147  4  5     94       
PG28   8371.484833 -24811.828658   5634.861719    351.317322  4  7  5  57       
PG29 -25943.658864   4391.461369  -3935.604187   -517.349493  2  4  4  89       
PG30   7656.615881 -14874.291567 -20496.408112   -529.184718  4  4  7 102       
PG31   2630.037607  21364.286436  15119.023626   -179.085647  4  4  4  71       
PG32 -11364.190255  15067.378168  18758.840159   -135.403179  5  6  6  81       
*  2022  5 25 18 30  0.00000000
PG01  20676.806514  11870.997566  11769.501061    355.230536     1  3  87       
PG02 -13209.280168 -21321.302926   9148.298620   -653.115140  4  6  6  87       
PG03  14646.526680   2958.801590  21842.296900   -256.877400  5  2  3  88       
PG04  24922.379285   2066.894409   9084.606648   -163.770286  7  3  4  70       
PG05  -7985.687518 -17965.234512 -17954.639211    -83.125126  5  5  3  42       
PG06    266.461045 -18585.937487  19001.641012    317.360388  3  5  5 109       
PG07  16308.500713  -3527.837375 -20365.564687    322.228989  5  6  6  85       
PG08  19861.366916   7070.575656 -16407.816586    -69.435725  5  6  2  94       
PG09  25706.081406  -6679.905593   -995.146349   -333.897468  6  4  4  94       
PG10 -11511.938088  23034.701888  -5692.914038   -428.482792  4  3  7  96       
PG11 -11298.578579 -22740.698393   7812.495149    -20.822912  4  9  7 114       
PG12 -12580.696782  -8372.287667  21582.042971   -220.974140  3  6  6  95       
PG13 -11002.563735 -13266.876235 -20407.471967    318.053802  5  6  4  89       
PG14  13230.456760 -21954.629234  -6773.307844   -109.709483  7  7  7 102       
PG15 -21057.141934  -5230.309424 -15937.624355    -58.407137  5  3  3  89       
PG16   2290.455374  21488.343527 -15399.436213   -503.855463  7  8  5  97       
PG17  16386.095221 -13550.788069  16377.522770    617.079755  4  1  4 100       
PG18 -16173.339473   3072.114982 -20877.397349    160.466323  4  4  6  95       
PG19   8771.636376 -14528.721559  20112.693912    162.058065     5  4 103       
PG20  -2429.286104 -25083.080402  -8744.695995    514.106160  4  7  4  72       
PG21  20852.894768  16881.502316   3008.057699    161.230649  3  6  4  87       
PG22  -5295.225271  15604.172336  21213.634220    265.001323  2  5  5  80       
PG23 -15408.565299  15356.031169 -15177.398945    -24.134970  5  7  5 108       
PG24 -21895.575802 -13446.720053   7219.528574    234.403009  4  5  4  99       
PG25 -16481.671938   7820.846517  18919.087263    329.249434  6  2  5  92       
PG26  -3316.100114  25785.270721  -4650.008223    208.071698  6  8  5  92       
PG27   7653.107107  13562.265111 -21775.127821    208.159820  5  4    101       
PG28   8739.733893 -25106.499389   2830.641259    351.310594  4  7  6  90       
PG29 -26240.454764   4228.384341  -1063.502714   -517.353204  2  3  4  88       
PG30   9237.724641 -13054.288784 -21096.680873   -529.185915  4  5  7  97       
PG31   1291.577951  20028.643931  17028.193451   -179.087215  3  4  4  77       
PG32 -13393.523397  15285.775460  17145.073935   -135.411216  4  6  5  63       
EOF
